[
  {
    "type": "ខេត្ត​",
    "code": "1",
    "name_km": "បន្ទាយមានជ័យ",
    "name_en": "Banteay Meanchey",
    "lat": "13.583664813111264",
    "lng": "102.9737737246134"
  },
  {
    "type": "ខេត្ត​",
    "code": "2",
    "name_km": "បាត់ដំបង",
    "name_en": "Battambang",
    "lat": "13.090590639071285",
    "lng": "103.20851148667306"
  },
  {
    "type": "ខេត្ត​",
    "code": "3",
    "name_km": "កំពង់ចាម",
    "name_en": "Kampong Cham",
    "lat": "11.987074114390813",
    "lng": "105.46194352955521"
  },
  {
    "type": "ខេត្ត​",
    "code": "4",
    "name_km": "កំពង់ឆ្នាំង",
    "name_en": "Kampong Chhnang",
    "lat": "12.250949317580192",
    "lng": "104.66846986061657"
  },
  {
    "type": "ខេត្ត​",
    "code": "5",
    "name_km": "កំពង់ស្ពឺ",
    "name_en": "Kampong Speu",
    "lat": "11.456856807299658",
    "lng": "104.51180855673627"
  },
  {
    "type": "ខេត្ត​",
    "code": "6",
    "name_km": "កំពង់ធំ",
    "name_en": "Kampong Thom",
    "lat": "12.708478402620116",
    "lng": "104.8899335565342"
  },
  {
    "type": "ខេត្ត​",
    "code": "7",
    "name_km": "កំពត",
    "name_en": "Kampot",
    "lat": "10.610484541686368",
    "lng": "104.18149767511213"
  },
  {
    "type": "ខេត្ត​",
    "code": "8",
    "name_km": "កណ្ដាល",
    "name_en": "Kandal",
    "lat": "11.481357520148036",
    "lng": "104.94481044947379"
  },
  {
    "type": "ខេត្ត​",
    "code": "9",
    "name_km": "កោះកុង",
    "name_en": "Koh Kong",
    "lat": "11.615447697217776",
    "lng": "102.98370883015625"
  },
  {
    "type": "ខេត្ត​",
    "code": "10",
    "name_km": "ក្រចេះ",
    "name_en": "Kratie",
    "lat": "12.495205431195172",
    "lng": "106.01700369030092"
  },
  {
    "type": "ខេត្ត​",
    "code": "11",
    "name_km": "មណ្ឌលគិរី",
    "name_en": "Mondul Kiri",
    "lat": "12.460173870664235",
    "lng": "107.18576849639717"
  },
  {
    "type": "ខេត្ត​",
    "code": "12",
    "name_km": "រាជធានីភ្នំពេញ",
    "name_en": "Phnom Penh",
    "lat": "11.576040504858218",
    "lng": "104.92285255669174"
  },
  {
    "type": "ខេត្ត​",
    "code": "13",
    "name_km": "ព្រះវិហារ",
    "name_en": "Preah Vihear",
    "lat": "13.791026139180225",
    "lng": "104.97756637619048"
  },
  {
    "type": "ខេត្ត​",
    "code": "14",
    "name_km": "ព្រៃវែង",
    "name_en": "Prey Veng",
    "lat": "11.481670056471854",
    "lng": "105.32483577071203"
  },
  {
    "type": "ខេត្ត​",
    "code": "15",
    "name_km": "ពោធិ៍សាត់",
    "name_en": "Pursat",
    "lat": "12.54480347155001",
    "lng": "103.92114566763678"
  },
  {
    "type": "ខេត្ត​",
    "code": "16",
    "name_km": "រតនគិរី",
    "name_en": "Ratanak Kiri",
    "lat": "13.739187827339167",
    "lng": "106.98699018681226"
  },
  {
    "type": "ខេត្ត​",
    "code": "17",
    "name_km": "សៀមរាប",
    "name_en": "Siemreap",
    "lat": "13.361783828946884",
    "lng": "103.85986643763697"
  },
  {
    "type": "ខេត្ត​",
    "code": "18",
    "name_km": "ព្រះសីហនុ",
    "name_en": "Preah Sihanouk",
    "lat": "10.626682652074978",
    "lng": "103.51156525847074"
  },
  {
    "type": "ខេត្ត​",
    "code": "19",
    "name_km": "ស្ទឹងត្រែង",
    "name_en": "Stung Treng",
    "lat": "13.51949924008397",
    "lng": "105.9650160312767"
  },
  {
    "type": "ខេត្ត​",
    "code": "20",
    "name_km": "ស្វាយរៀង",
    "name_en": "Svay Rieng",
    "lat": "11.087786700866149",
    "lng": "105.8009821507571"
  },
  {
    "type": "ខេត្ត​",
    "code": "21",
    "name_km": "តាកែវ",
    "name_en": "Takeo",
    "lat": "10.988455875140334",
    "lng": "104.78264868185681"
  },
  {
    "type": "ខេត្ត​",
    "code": "22",
    "name_km": "ឧត្ដរមានជ័យ",
    "name_en": "Oddar Meanchey",
    "lat": "14.188466055588334",
    "lng": "103.52132707824589"
  },
  {
    "type": "ខេត្ត​",
    "code": "23",
    "name_km": "កែប",
    "name_en": "Kep",
    "lat": "10.550029413435487",
    "lng": "104.2908439614301"
  },
  {
    "type": "ខេត្ត​",
    "code": "24",
    "name_km": "ប៉ៃលិន",
    "name_en": "Pailin",
    "lat": "12.855386335351566",
    "lng": "102.6087729506203"
  },
  {
    "type": "ខេត្ត​",
    "code": "25",
    "name_km": "ត្បូងឃ្មុំ",
    "name_en": "Tboung Khmum",
    "lat": "11.896043602042615",
    "lng": "105.78144298292608"
  }
]